{"type": "FeatureCollection", "features": [ {"type": "Feature", "properties": {"norad_id": 28649, "name": "IRS-P5 (CARTOSAT-1)", "group": "resource", "lat": -54.76935334539692, "lon": -164.33773071955648, "alt_km": 603.9117132527572, "timestamp": "2025-12-26T16:33:55.240439+00:00", "meta": {"OBJECT_NAME": "IRS-P5 (CARTOSAT-1)", "OBJECT_ID": "2005-017A", "EPOCH": "2025-12-26T01:00:39.646656", "MEAN_MOTION": 14.90447527, "ECCENTRICITY": 4.71e-05, "INCLINATION": 97.5483, "RA_OF_ASC_NODE": 25.865, "ARG_OF_PERICENTER": 68.6931, "MEAN_ANOMALY": 291.4338, "EPHEMERIS_TYPE": 0, "CLASSIFICATION_TYPE": "U", "NORAD_CAT_ID": 28649, "ELEMENT_SET_NO": 999, "REV_AT_EPOCH": 11802, "BSTAR": 0.00016417442, "MEAN_MOTION_DOT": 1.548e-05, "MEAN_MOTION_DDOT": 0}, "tle": {"line1": "1 28649U 05017A   25360.04212554  .00001548  00000+0  16417-3 0  9990", "line2": "2 28649  97.5483  25.8650 0000471  68.6931 291.4338 14.90447527118023"}}, "geometry": {"type": "Point", "coordinates": [-164.33773071955648, -54.76935334539692]}}, {"type": "Feature", "properties": {"norad_id": 28893, "name": "SINAH 1", "group": "resource", "lat": -17.349607860408426, "lon": 131.88688529352174, "alt_km": 689.7515252727562, "timestamp": "2025-12-26T16:33:55.240448+00:00", "meta": {"OBJECT_NAME": "SINAH 1", "OBJECT_ID": "2005-043D", "EPOCH": "2025-12-26T06:48:11.715552", "MEAN_MOTION": 14.63976508, "ECCENTRICITY": 0.00157323, "INCLINATION": 98.261, "RA_OF_ASC_NODE": 128.8776, "ARG_OF_PERICENTER": 97.5368, "MEAN_ANOMALY": 262.7622, "EPHEMERIS_TYPE": 0, "CLASSIFICATION_TYPE": "U", "NORAD_CAT_ID": 28893, "ELEMENT_SET_NO": 999, "REV_AT_EPOCH": 7522, "BSTAR": 0.00010369915, "MEAN_MOTION_DOT": 4.95e-06, "MEAN_MOTION_DDOT": 0}, "tle": {"line1": "1 28893U 05043D   25360.28346893  .00000495  00000+0  10370-3 0  9992", "line2": "2 28893  98.2610 128.8776 0015732  97.5368 262.7622 14.63976508 75225"}}, "geometry": {"type": "Point", "coordinates": [131.88688529352174, -17.349607860408426]}}, {"type": "Feature", "properties": {"norad_id": 29079, "name": "EROS B", "group": "resource", "lat": -65.92743565988349, "lon": 134.75677245958107, "alt_km": 354.62689381535256, "timestamp": "2025-12-26T16:33:55.240458+00:00", "meta": {"OBJECT_NAME": "EROS B", "OBJECT_ID": "2006-014A", "EPOCH": "2025-12-26T06:09:41.533344", "MEAN_MOTION": 15.72806806, "ECCENTRICITY": 0.00046483, "INCLINATION": 97.3451, "RA_OF_ASC_NODE": 117.5167, "ARG_OF_PERICENTER": 312.0474, "MEAN_ANOMALY": 48.0394, "EPHEMERIS_TYPE": 0, "CLASSIFICATION_TYPE": "U", "NORAD_CAT_ID": 29079, "ELEMENT_SET_NO": 999, "REV_AT_EPOCH": 9292, "BSTAR": 0.0014985603, "MEAN_MOTION_DOT": 0.00206803, "MEAN_MOTION_DDOT": 0}, "tle": {"line1": "1 29079U 06014A   25360.25673071  .00206803  00000+0  14986-2 0  9993", "line2": "2 29079  97.3451 117.5167 0004648 312.0474  48.0394 15.72806806 92922"}}, "geometry": {"type": "Point", "coordinates": [134.75677245958107, -65.92743565988349]}}, {"type": "Feature", "properties": {"norad_id": 29228, "name": "RESURS-DK 1", "group": "resource", "lat": -9.755671174827935, "lon": -110.61287053656407, "alt_km": 530.276153189523, "timestamp": "2025-12-26T16:33:55.240468+00:00", "meta": {"OBJECT_NAME": "RESURS-DK 1", "OBJECT_ID": "2006-021A", "EPOCH": "2025-12-26T06:12:04.097664", "MEAN_MOTION": 15.12235716, "ECCENTRICITY": 0.00069407, "INCLINATION": 69.9336, "RA_OF_ASC_NODE": 66.8994, "ARG_OF_PERICENTER": 246.5689, "MEAN_ANOMALY": 113.4747, "EPHEMERIS_TYPE": 0, "CLASSIFICATION_TYPE": "U", "NORAD_CAT_ID": 29228, "ELEMENT_SET_NO": 999, "REV_AT_EPOCH": 7642, "BSTAR": 0.0001786883, "MEAN_MOTION_DOT": 2.99e-05, "MEAN_MOTION_DDOT": 0}, "tle": {"line1": "1 29228U 06021A   25360.25838076  .00002990  00000+0  17869-3 0  9990", "line2": "2 29228  69.9336  66.8994 0006940 246.5689 113.4747 15.12235716 76421"}}, "geometry": {"type": "Point", "coordinates": [-110.61287053656407, -9.755671174827935]}}, {"type": "Feature", "properties": {"norad_id": 29268, "name": "ARIRANG-2 (KOMPSAT-2)", "group": "resource", "lat": -81.06748016758014, "lon": -110.46876212636697, "alt_km": 677.0043502056333, "timestamp": "2025-12-26T16:33:55.240477+00:00", "meta": {"OBJECT_NAME": "ARIRANG-2 (KOMPSAT-2)", "OBJECT_ID": "2006-031A", "EPOCH": "2025-12-26T07:28:21.552384", "MEAN_MOTION": 14.64504963, "ECCENTRICITY": 0.00131205, "INCLINATION": 97.8259, "RA_OF_ASC_NODE": 188.1226, "ARG_OF_PERICENTER": 262.3169, "MEAN_ANOMALY": 175.7272, "EPHEMERIS_TYPE": 0, "CLASSIFICATION_TYPE": "U", "NORAD_CAT_ID": 29268, "ELEMENT_SET_NO": 999, "REV_AT_EPOCH": 3617, "BSTAR": 6.4152597e-05, "MEAN_MOTION_DOT": 2.95e-06, "MEAN_MOTION_DDOT": 0}, "tle": {"line1": "1 29268U 06031A   25360.31136056  .00000295  00000+0  64153-4 0  9996", "line2": "2 29268  97.8259 188.1226 0013120 262.3169 175.7272 14.64504963 36173"}}, "geometry": {"type": "Point", "coordinates": [-110.46876212636697, -81.06748016758014]}}, {"type": "Feature", "properties": {"norad_id": 29709, "name": "LAPAN-TUBSAT", "group": "resource", "lat": -11.532232284481742, "lon": 169.4633748875194, "alt_km": 624.3818435579224, "timestamp": "2025-12-26T16:33:55.240487+00:00", "meta": {"OBJECT_NAME": "LAPAN-TUBSAT", "OBJECT_ID": "2007-001A", "EPOCH": "2025-12-26T06:00:29.422656", "MEAN_MOTION": 14.8568972, "ECCENTRICITY": 0.00131181, "INCLINATION": 98.1267, "RA_OF_ASC_NODE": 350.6851, "ARG_OF_PERICENTER": 33.7953, "MEAN_ANOMALY": 326.4095, "EPHEMERIS_TYPE": 0, "CLASSIFICATION_TYPE": "U", "NORAD_CAT_ID": 29709, "ELEMENT_SET_NO": 999, "REV_AT_EPOCH": 2547, "BSTAR": 8.7819197e-05, "MEAN_MOTION_DOT": 7.05e-06, "MEAN_MOTION_DDOT": 0}, "tle": {"line1": "1 29709U 07001A   25360.25034054  .00000705  00000+0  87819-4 0  9992", "line2": "2 29709  98.1267 350.6851 0013118  33.7953 326.4095 14.85689720 25471"}}, "geometry": {"type": "Point", "coordinates": [169.4633748875194, -11.532232284481742]}}, {"type": "Feature", "properties": {"norad_id": 31113, "name": "HAIYANG-1B", "group": "resource", "lat": -32.53781706589262, "lon": 159.02737822217455, "alt_km": 802.5200915180349, "timestamp": "2025-12-26T16:33:55.240497+00:00", "meta": {"OBJECT_NAME": "HAIYANG-1B", "OBJECT_ID": "2007-010A", "EPOCH": "2025-12-25T22:47:30.795072", "MEAN_MOTION": 14.30969243, "ECCENTRICITY": 0.0013551, "INCLINATION": 98.3331, "RA_OF_ASC_NODE": 343.6829, "ARG_OF_PERICENTER": 359.9847, "MEAN_ANOMALY": 0.1334, "EPHEMERIS_TYPE": 0, "CLASSIFICATION_TYPE": "U", "NORAD_CAT_ID": 31113, "ELEMENT_SET_NO": 999, "REV_AT_EPOCH": 97585, "BSTAR": 6.0325e-05, "MEAN_MOTION_DOT": 1.17e-06, "MEAN_MOTION_DDOT": 0}, "tle": {"line1": "1 31113U 07010A   25359.94966198  .00000117  00000+0  60325-4 0  9991", "line2": "2 31113  98.3331 343.6829 0013551 359.9847   0.1334 14.30969243975859"}}, "geometry": {"type": "Point", "coordinates": [159.02737822217455, -32.53781706589262]}}, {"type": "Feature", "properties": {"norad_id": 31598, "name": "COSMO-SKYMED 1", "group": "resource", "lat": -63.367927839574946, "lon": -157.77704897019711, "alt_km": 587.5179712767731, "timestamp": "2025-12-26T16:33:55.240506+00:00", "meta": {"OBJECT_NAME": "COSMO-SKYMED 1", "OBJECT_ID": "2007-023A", "EPOCH": "2025-12-26T07:13:14.584800", "MEAN_MOTION": 14.95864, "ECCENTRICITY": 0.00011607, "INCLINATION": 97.8839, "RA_OF_ASC_NODE": 185.7898, "ARG_OF_PERICENTER": 77.5409, "MEAN_ANOMALY": 282.5941, "EPHEMERIS_TYPE": 0, "CLASSIFICATION_TYPE": "U", "NORAD_CAT_ID": 31598, "ELEMENT_SET_NO": 999, "REV_AT_EPOCH": 393, "BSTAR": 0.00029764685, "MEAN_MOTION_DOT": 3.268e-05, "MEAN_MOTION_DDOT": 0}, "tle": {"line1": "1 31598U 07023A   25360.30086325  .00003268  00000+0  29765-3 0  9991", "line2": "2 31598  97.8839 185.7898 0001160  77.5409 282.5941 14.95864000  3931"}}, "geometry": {"type": "Point", "coordinates": [-157.77704897019711, -63.367927839574946]}}, {"type": "Feature", "properties": {"norad_id": 31698, "name": "TERRASAR-X", "group": "resource", "lat": 40.61518893201268, "lon": -0.5716543373322687, "alt_km": 504.20000598172373, "timestamp": "2025-12-26T16:33:55.240516+00:00", "meta": {"OBJECT_NAME": "TERRASAR-X", "OBJECT_ID": "2007-026A", "EPOCH": "2025-12-25T13:30:40.378176", "MEAN_MOTION": 15.19155603, "ECCENTRICITY": 0.0001851, "INCLINATION": 97.4447, "RA_OF_ASC_NODE": 4.756, "ARG_OF_PERICENTER": 79.9289, "MEAN_ANOMALY": 280.2154, "EPHEMERIS_TYPE": 0, "CLASSIFICATION_TYPE": "U", "NORAD_CAT_ID": 31698, "ELEMENT_SET_NO": 999, "REV_AT_EPOCH": 2686, "BSTAR": 7.0738e-05, "MEAN_MOTION_DOT": 1.419e-05, "MEAN_MOTION_DDOT": 0}, "tle": {"line1": "1 31698U 07026A   25359.56296734  .00001419  00000+0  70738-4 0  9991", "line2": "2 31698  97.4447   4.7560 0001851  79.9289 280.2154 15.19155603 26865"}}, "geometry": {"type": "Point", "coordinates": [-0.5716543373322687, 40.61518893201268]}}, {"type": "Feature", "properties": {"norad_id": 32060, "name": "WORLDVIEW-1 (WV-1)", "group": "resource", "lat": -56.9496822655362, "lon": 129.45896759564783, "alt_km": 499.51726761966074, "timestamp": "2025-12-26T16:33:55.240526+00:00", "meta": {"OBJECT_NAME": "WORLDVIEW-1 (WV-1)", "OBJECT_ID": "2007-041A", "EPOCH": "2025-12-26T07:21:46.694880", "MEAN_MOTION": 15.23977032, "ECCENTRICITY": 0.00030663, "INCLINATION": 97.3819, "RA_OF_ASC_NODE": 117.5881, "ARG_OF_PERICENTER": 350.484, "MEAN_ANOMALY": 9.6339, "EPHEMERIS_TYPE": 0, "CLASSIFICATION_TYPE": "U", "NORAD_CAT_ID": 32060, "ELEMENT_SET_NO": 999, "REV_AT_EPOCH": 1654, "BSTAR": 0.0003338713, "MEAN_MOTION_DOT": 8.014e-05, "MEAN_MOTION_DDOT": 0}, "tle": {"line1": "1 32060U 07041A   25360.30679045  .00008014  00000+0  33387-3 0  9992", "line2": "2 32060  97.3819 117.5881 0003066 350.4840   9.6339 15.23977032 16545"}}, "geometry": {"type": "Point", "coordinates": [129.45896759564783, -56.9496822655362]}}]}